$$SOE
2460154.500000000, A.D. 2023-Jul-29 00:00:00.0000, 1.743961640778646E+08, 3.267317136018259E+08, -9.024389511507583E+07,
2460161.500000000, A.D. 2023-Aug-05 00:00:00.0000, 1.652916078406478E+08, 3.335725844570350E+08, -9.001604126855274E+07,
2460168.500000000, A.D. 2023-Aug-12 00:00:00.0000, 1.560443482507541E+08, 3.401252700190800E+08, -8.971038166545589E+07,
2460175.500000000, A.D. 2023-Aug-19 00:00:00.0000, 1.466642596098198E+08, 3.463882268198346E+08, -8.932826829586795E+07,
2460182.500000000, A.D. 2023-Aug-26 00:00:00.0000, 1.371610673769968E+08, 3.523602266361986E+08, -8.887108764608626E+07,
2460189.500000000, A.D. 2023-Sep-02 00:00:00.0000, 1.275443420043055E+08, 3.580403414944875E+08, -8.834025685233304E+07,
2460196.500000000, A.D. 2023-Sep-09 00:00:00.0000, 1.178234937602432E+08, 3.634279289046680E+08, -8.773722009272486E+07,
2460203.500000000, A.D. 2023-Sep-16 00:00:00.0000, 1.080077686390397E+08, 3.685226173038628E+08, -8.706344523289046E+07,
2460210.500000000, A.D. 2023-Sep-23 00:00:00.0000, 9.810624570311296E+07, 3.733242920276754E+08, -8.632042073472843E+07,
2460217.500000000, A.D. 2023-Sep-30 00:00:00.0000, 8.812783545427516E+07, 3.778330830262449E+08, -8.550965269444442E+07,
2460224.500000000, A.D. 2023-Oct-07 00:00:00.0000, 7.808127681837061E+07, 3.820493537989137E+08, -8.463266183075884E+07,
2460231.500000000, A.D. 2023-Oct-14 00:00:00.0000, 6.797513371998084E+07, 3.859736882458756E+08, -8.369098078006296E+07,
2460238.500000000, A.D. 2023-Oct-21 00:00:00.0000, 5.781779441785819E+07, 3.896068770534739E+08, -8.268615185728836E+07,
2460245.500000000, A.D. 2023-Oct-28 00:00:00.0000, 4.761747212630470E+07, 3.929499058789822E+08, -8.161972495952235E+07,
2460252.500000000, A.D. 2023-Nov-04 00:00:00.0000, 3.738220562180740E+07, 3.960039445619679E+08, -8.049325555013099E+07,
2460259.500000000, A.D. 2023-Nov-11 00:00:00.0000, 2.711985996181858E+07, 3.987703367581707E+08, -7.930830277824610E+07,
2460266.500000000, A.D. 2023-Nov-18 00:00:00.0000, 1.683812748643884E+07, 4.012505899276286E+08, -7.806642774989879E+07,
2460273.500000000, A.D. 2023-Nov-25 00:00:00.0000, 6.544529130735277E+06, 4.034463656963041E+08, -7.676919194815148E+07,
2460280.500000000, A.D. 2023-Dec-02 00:00:00.0000, -3.753583964149719E+06, 4.053594705762270E+08, -7.541815579925272E+07,
2460287.500000000, A.D. 2023-Dec-09 00:00:00.0000, -1.404902849841560E+07, 4.069918469790962E+08, -7.401487739021054E+07,
2460294.500000000, A.D. 2023-Dec-16 00:00:00.0000, -2.433478646381028E+07, 4.083455645265408E+08, -7.256091135587479E+07,
2460301.500000000, A.D. 2023-Dec-23 00:00:00.0000, -3.460400167810828E+07, 4.094228123329499E+08, -7.105780790372515E+07,
2460308.500000000, A.D. 2023-Dec-30 00:00:00.0000, -4.484997677150799E+07, 4.102258932976680E+08, -6.950711176043691E+07,
2460315.500000000, A.D. 2024-Jan-06 00:00:00.0000, -5.506617242192275E+07, 4.107572180292256E+08, -6.791036106245318E+07,
2460322.500000000, A.D. 2024-Jan-13 00:00:00.0000, -6.524620569343659E+07, 4.110192965761570E+08, -6.626908662081231E+07,
2460329.500000000, A.D. 2024-Jan-20 00:00:00.0000, -7.538384628070496E+07, 4.110147310374027E+08, -6.458481141527100E+07,
2460336.500000000, A.D. 2024-Jan-27 00:00:00.0000, -8.547301270827340E+07, 4.107462096932759E+08, -6.285905007393754E+07,
2460343.500000000, A.D. 2024-Feb-03 00:00:00.0000, -9.550776893141299E+07, 4.102165016945239E+08, -6.109330837140431E+07,
2460350.500000000, A.D. 2024-Feb-10 00:00:00.0000, -1.054823210781227E+08, 4.094284520048901E+08, -5.928908278962424E+07,
2460357.500000000, A.D. 2024-Feb-17 00:00:00.0000, -1.153910142086454E+08, 4.083849765920571E+08, -5.744786014888667E+07,
2460364.500000000, A.D. 2024-Feb-24 00:00:00.0000, -1.252283290698327E+08, 4.070890578686000E+08, -5.557111730633762E+07,
2460371.500000000, A.D. 2024-Mar-02 00:00:00.0000, -1.349888788269029E+08, 4.055437403370626E+08, -5.366032092281295E+07,
2460378.500000000, A.D. 2024-Mar-09 00:00:00.0000, -1.446674056445833E+08, 4.037521263628552E+08, -5.171692731140897E+07,
2460385.500000000, A.D. 2024-Mar-16 00:00:00.0000, -1.542587767323692E+08, 4.017173722589642E+08, -4.974238238370776E+07,
2460392.500000000, A.D. 2024-Mar-23 00:00:00.0000, -1.637579799671219E+08, 3.994426857793114E+08, -4.773812158980255E+07,
2460399.500000000, A.D. 2024-Mar-30 00:00:00.0000, -1.731601213421521E+08, 3.969313249835432E+08, -4.570556964562981E+07,
2460406.500000000, A.D. 2024-Apr-06 00:00:00.0000, -1.824604239914604E+08, 3.941865950930135E+08, -4.364614034251204E+07,
2460413.500000000, A.D. 2024-Apr-13 00:00:00.0000, -1.916542252445823E+08, 3.912118441595759E+08, -4.156123669211952E+07,
2460420.500000000, A.D. 2024-Apr-20 00:00:00.0000, -2.007369726724054E+08, 3.880104602143035E+08, -3.945225109838019E+07,
2460427.500000000, A.D. 2024-Apr-27 00:00:00.0000, -2.097042206455781E+08, 3.845858693264403E+08, -3.732056546083778E+07,
2460434.500000000, A.D. 2024-May-04 00:00:00.0000, -2.185516273209857E+08, 3.809415338590215E+08, -3.516755127220599E+07,
2460441.500000000, A.D. 2024-May-11 00:00:00.0000, -2.272749518216079E+08, 3.770809508094426E+08, -3.299456973763679E+07,
2460448.500000000, A.D. 2024-May-18 00:00:00.0000, -2.358700515312416E+08, 3.730076502475854E+08, -3.080297191904823E+07,
2460455.500000000, A.D. 2024-May-25 00:00:00.0000, -2.443328794824291E+08, 3.687251938360522E+08, -2.859409890512094E+07,
2460462.500000000, A.D. 2024-Jun-01 00:00:00.0000, -2.526594817804231E+08, 3.642371733672459E+08, -2.636928201501477E+07,
2460469.500000000, A.D. 2024-Jun-08 00:00:00.0000, -2.608459948191819E+08, 3.595472092869110E+08, -2.412984305824883E+07,
2460476.500000000, A.D. 2024-Jun-15 00:00:00.0000, -2.688886418921429E+08, 3.546589497422127E+08, -2.187709464092633E+07,
2460483.500000000, A.D. 2024-Jun-22 00:00:00.0000, -2.767837302055882E+08, 3.495760713236881E+08, -1.961234032842553E+07,
2460490.500000000, A.D. 2024-Jun-29 00:00:00.0000, -2.845276504175808E+08, 3.443022796763424E+08, -1.733687461734310E+07,
2460497.500000000, A.D. 2024-Jul-06 00:00:00.0000, -2.921168760549029E+08, 3.388413075026013E+08, -1.505198315922034E+07,
2460504.500000000, A.D. 2024-Jul-13 00:00:00.0000, -2.995479608572660E+08, 3.331969127716081E+08, -1.275894318186329E+07,
2460511.500000000, A.D. 2024-Jul-20 00:00:00.0000, -3.068175360360044E+08, 3.273728782764919E+08, -1.045902383099419E+07,
2460518.500000000, A.D. 2024-Jul-27 00:00:00.0000, -3.139223081040826E+08, 3.213730115741649E+08, -8.153486449471176E+06,
2460525.500000000, A.D. 2024-Aug-03 00:00:00.0000, -3.208590570058796E+08, 3.152011449264472E+08, -5.843584848827362E+06,
2460532.500000000, A.D. 2024-Aug-10 00:00:00.0000, -3.276246343835085E+08, 3.088611352335392E+08, -3.530565588101014E+06,
2460539.500000000, A.D. 2024-Aug-17 00:00:00.0000, -3.342159619345032E+08, 3.023568639789432E+08, -1.215668262079567E+06,
2460546.500000000, A.D. 2024-Aug-24 00:00:00.0000, -3.406300298339499E+08, 2.956922371615584E+08, 1.099874197156250E+06,
2460553.500000000, A.D. 2024-Aug-31 00:00:00.0000, -3.468638951053076E+08, 2.888711851509650E+08, 3.414835190343380E+06,
2460560.500000000, A.D. 2024-Sep-07 00:00:00.0000, -3.529146795738603E+08, 2.818976625889760E+08, 5.727994070232928E+06,
2460567.500000000, A.D. 2024-Sep-14 00:00:00.0000, -3.587795673173462E+08, 2.747756493294374E+08, 8.038135784030810E+06,
2460574.500000000, A.D. 2024-Sep-21 00:00:00.0000, -3.644558036437684E+08, 2.675091528254906E+08, 1.034405075936346E+07,
2460581.500000000, A.D. 2024-Sep-28 00:00:00.0000, -3.699406960849498E+08, 2.601022087350059E+08, 1.264453481517597E+07,
2460588.500000000, A.D. 2024-Oct-05 00:00:00.0000, -3.752316137341188E+08, 2.525588797427919E+08, 1.493838876181057E+07,
2460595.500000000, A.D. 2024-Oct-12 00:00:00.0000, -3.803259852876481E+08, 2.448832555743098E+08, 1.722441796751513E+07,
2460602.500000000, A.D. 2024-Oct-19 00:00:00.0000, -3.852212975445660E+08, 2.370794539272732E+08, 1.950143203025818E+07,
2460609.500000000, A.D. 2024-Oct-26 00:00:00.0000, -3.899150943977258E+08, 2.291516215185855E+08, 2.176824449285382E+07,
2460616.500000000, A.D. 2024-Nov-02 00:00:00.0000, -3.944049760595930E+08, 2.211039350963728E+08, 2.402367256630662E+07,
2460623.500000000, A.D. 2024-Nov-09 00:00:00.0000, -3.986885984265108E+08, 2.129406024355678E+08, 2.626653685485275E+07,
2460630.500000000, A.D. 2024-Nov-16 00:00:00.0000, -4.027636725563301E+08, 2.046658633151843E+08, 2.849566108098465E+07,
2460637.500000000, A.D. 2024-Nov-23 00:00:00.0000, -4.066279642134678E+08, 1.962839904254285E+08, 3.070987180273153E+07,
2460644.500000000, A.D. 2024-Nov-30 00:00:00.0000, -4.102792932741504E+08, 1.877992901601079E+08, 3.290799810127892E+07,
2460651.500000000, A.D. 2024-Dec-07 00:00:00.0000, -4.137155325734422E+08, 1.792161037129297E+08, 3.508887123551655E+07,
2460658.500000000, A.D. 2024-Dec-14 00:00:00.0000, -4.169346068841707E+08, 1.705388096992926E+08, 3.725132442739826E+07,
2460665.500000000, A.D. 2024-Dec-21 00:00:00.0000, -4.199344943494206E+08, 1.617718270608667E+08, 3.939419289019668E+07,
2460672.500000000, A.D. 2024-Dec-28 00:00:00.0000, -4.227132283990821E+08, 1.529196152852739E+08, 4.151631367725879E+07,
2460679.500000000, A.D. 2025-Jan-04 00:00:00.0000, -4.252688975529056E+08, 1.439866743155632E+08, 4.361652530814361E+07,
2460686.500000000, A.D. 2025-Jan-11 00:00:00.0000, -4.275996449321766E+08, 1.349775458053789E+08, 4.569366747561283E+07,
2460693.500000000, A.D. 2025-Jan-18 00:00:00.0000, -4.297036684010287E+08, 1.258968147982821E+08, 4.774658084354019E+07,
2460700.500000000, A.D. 2025-Jan-25 00:00:00.0000, -4.315792210976996E+08, 1.167491113553131E+08, 4.977410687589032E+07,
2460707.500000000, A.D. 2025-Feb-01 00:00:00.0000, -4.332246121690894E+08, 1.075391120989259E+08, 5.177508767821769E+07,
2460714.500000000, A.D. 2025-Feb-08 00:00:00.0000, -4.346382076532331E+08, 9.827154169071929E+07, 5.374836584925550E+07,
2460721.500000000, A.D. 2025-Feb-15 00:00:00.0000, -4.358184314843656E+08, 8.895117422064322E+07, 5.569278433969870E+07,
$$EOE